*******************************************************************************
Ephemeris / WWW_USER Mon Aug  5 20:08:28 2019 Pasadena, USA      / Horizons    
*******************************************************************************
Target body name: Titan (606)                     {source: sat409l_merged_DE437}
Center body name: Sun (10)                        {source: sat409l_merged_DE437}
Center-site name: BODYCENTRIC
*******************************************************************************
Start time      : A.D. 2016-Nov-18 00:00:00.0000 UT      
Stop  time      : A.D. 2045-Nov-18 00:00:00.0000 UT      
Step-size       : 41760 minutes
*******************************************************************************
Target pole/equ : IAU_TITAN                       {West-longitude positive}
Target radii    : 2575.2 x 2574.8 x 2574.5 km     {Equator, meridian, pole}    
Center geodetic : 0.00000000,0.00000000,0.0000000 {E-lon(deg),Lat(deg),Alt(km)}
Center cylindric: 0.00000000,0.00000000,0.0000000 {E-lon(deg),Dxy(km),Dz(km)}
Center pole/equ : IAU_SUN                         {East-longitude positive}
Center radii    : 696000.0 x 696000.0 x 696000.0 k{Equator, meridian, pole}    
Target primary  : Saturn
Vis. interferer : None
Rel. light bend : Sun                             {source: sat409l_merged_DE437
Rel. lght bnd GM: 1.3271E+11 km^3/s^2                                          
Atmos refraction: NO (AIRLESS)
RA format       : DEG
Time format     : BOTH
EOP file        : eop.190802.p191024                                           
EOP coverage    : DATA-BASED 1962-JAN-20 TO 2019-AUG-02. PREDICTS-> 2019-OCT-23
Units conversion: 1 au= 149597870.700 km, c= 299792.458 km/s, 1 day= 86400.0 s 
Table cut-offs 1: Elevation (-90.0deg=NO ),Airmass     n.a.    , Daylight (NO )
Table cut-offs 2: Solar elongation (  0.0,180.0=NO ),Local Hour Angle( 0.0=NO )
Table format    : Comma Separated Values (spreadsheet)
************************************************************************************************************************************************************
 Date__(UT)__HR:MN, Date_________JDUT, , ,R.A._(ICRF/J2000.0), DEC_(ICRF/J2000.0), hEcl-Lon,hEcl-Lat,            delta,     deldot,    ObsEcLon,   ObsEcLat,
************************************************************************************************************************************************************
$$SOE
 2025-Aug-13 00:00, 2460900.500000000, , ,358.01175, -3.29901, 356.8637, -2.2363, 9.56816065853426, -4.0993356, 356.8637068, -2.2362666,
 2025-Sep-11 00:00, 2460929.500000000, , ,358.85183, -2.92856, 357.7814, -2.2302, 9.56003373653864,  2.2240582, 357.7813809, -2.2302049,
 2025-Oct-10 00:00, 2460958.500000000, , ,359.72238, -2.55662, 358.7278, -2.2351, 9.54307782777667,  5.0089239, 358.7278399, -2.2351197,
 2025-Nov-08 00:00, 2460987.500000000, , ,  0.65223, -2.18691, 359.7281, -2.2658, 9.52726661052526,  1.1896642, 359.7280521, -2.2658037,
 2025-Dec-07 00:00, 2461016.500000000, , ,  1.60078, -1.81955,   0.7447, -2.3061, 9.52037567648089, -4.4295999,   0.7447266, -2.3060972,
 2026-Jan-05 00:00, 2461045.500000000, , ,  2.51013, -1.45117,   1.7260, -2.3298, 9.52005637362158, -5.7243078,   1.7260355, -2.3297521,
 2026-Feb-03 00:00, 2461074.500000000, , ,  3.36592, -1.07758,   2.6604, -2.3271, 9.51628733020346, -0.6751368,   2.6603885, -2.3271197,
 2026-Mar-04 00:00, 2461103.500000000, , ,  4.22166, -0.69863,   3.5969, -2.3192, 9.50245023684878,  4.6432501,   3.5969258, -2.3192335,
 2026-Apr-02 00:00, 2461132.500000000, , ,  5.13427, -0.31968,   4.5858, -2.3335, 9.48472925956550,  3.4824308,   4.5857637, -2.3334733,
 2026-May-01 00:00, 2461161.500000000, , ,  6.09026,  0.05467,   5.6127, -2.3685, 9.47357248746184, -2.1531968,   5.6126924, -2.3685178,
 2026-May-30 00:00, 2461190.500000000, , ,  7.03069,  0.42545,   6.6240, -2.3999, 9.47130114842247, -5.9461752,   6.6239564, -2.3999207,
 2026-Jun-28 00:00, 2461219.500000000, , ,  7.91568,  0.79849,   7.5851, -2.4065, 9.47042039623179, -3.4686580,   7.5851266, -2.4064966,
 2026-Jul-27 00:00, 2461248.500000000, , ,  8.77086,  1.17894,   8.5217, -2.3936, 9.46113267318911,  2.8418983,   8.5217356, -2.3936196,
 2026-Aug-25 00:00, 2461277.500000000, , ,  9.66465,  1.56394,   9.4955, -2.3907, 9.44381327890192,  4.8525826,   9.4955204, -2.3907323,
 2026-Sep-23 00:00, 2461306.500000000, , , 10.61785,  1.94514,  10.5224, -2.4134, 9.42894062854402,  0.4828224,  10.5223583, -2.4134107,
 2026-Oct-22 00:00, 2461335.500000000, , , 11.58324,  2.31885,  11.5573, -2.4463, 9.42327265394108, -4.8569683,  11.5573375, -2.4462996,
 2026-Nov-20 00:00, 2461364.500000000, , , 12.50475,  2.68964,  12.5506, -2.4632, 9.42318391796322, -5.3480193,  12.5505960, -2.4632413,
 2026-Dec-19 00:00, 2461393.500000000, , , 13.37637,  3.06636,  13.5000, -2.4538, 9.41850986069275,  0.0982806,  13.4999603, -2.4538210,
 2027-Jan-17 00:00, 2461422.500000000, , , 14.25719,  3.45204,  14.4610, -2.4381, 9.40394095990924,  4.8636185,  14.4609587, -2.4381231,
 2027-Feb-15 00:00, 2461451.500000000, , , 15.19929,  3.83816,  15.4783, -2.4438, 9.38682070212373,  2.9163813,  15.4782616, -2.4437986,
 2027-Mar-16 00:00, 2461480.500000000, , , 16.18032,  4.21529,  16.5276, -2.4706, 9.37712339156628, -2.8037725,  16.5276383, -2.4705760,
 2027-Apr-14 00:00, 2461509.500000000, , , 17.13901,  4.58377,  17.5528, -2.4946, 9.37577866427779, -5.9101179,  17.5527534, -2.4945580,
 2027-May-13 00:00, 2461538.500000000, , , 18.04180,  4.95324,  18.5262, -2.4942, 9.37452663164474, -2.7283450,  18.5262440, -2.4941827,
 2027-Jun-11 00:00, 2461567.500000000, , , 18.92273,  5.33316,  19.4830, -2.4737, 9.36435969795717,  3.4139892,  19.4830311, -2.4736939,
 2027-Jul-10 00:00, 2461596.500000000, , , 19.85026,  5.71986,  20.4848, -2.4620, 9.34718184690632,  4.5745290,  20.4848317, -2.4620377,
 2027-Aug-08 00:00, 2461625.500000000, , , 20.83643,  6.09984,  21.5377, -2.4757, 9.33373779467298, -0.2537942,  21.5376648, -2.4757096,
 2027-Sep-06 00:00, 2461654.500000000, , , 21.82764,  6.46677,  22.5897, -2.5003, 9.32956266191723, -5.1688204,  22.5897338, -2.5003494,
 2027-Oct-05 00:00, 2461683.500000000, , , 22.77069,  6.82765,  23.5945, -2.5099, 9.32980714841171, -4.8197083,  23.5944646, -2.5099146,
 2027-Nov-03 00:00, 2461712.500000000, , , 23.66852,  7.19610,  24.5595, -2.4931, 9.32441365552951,  0.8997033,  24.5595203, -2.4930708,
 2027-Dec-02 00:00, 2461741.500000000, , , 24.58525,  7.57676,  25.5457, -2.4688, 9.30955046454988,  4.9738034,  25.5457400, -2.4687782,
 2027-Dec-31 00:00, 2461770.500000000, , , 25.56697,  7.95689,  26.5911, -2.4650, 9.29357691893462,  2.2615657,  26.5910585, -2.4649959,
 2028-Jan-29 00:00, 2461799.500000000, , , 26.58212,  8.32276,  27.6614, -2.4827, 9.28572085892512, -3.3981968,  27.6613644, -2.4827056,
 2028-Feb-27 00:00, 2461828.500000000, , , 27.56797,  8.67537,  28.6990, -2.4987, 9.28544820369848, -5.7161183,  28.6990415, -2.4986654,
 2028-Mar-27 00:00, 2461857.500000000, , , 28.49826,  9.02877,  29.6847, -2.4908, 9.28392868661835, -1.8897882,  29.6847461, -2.4908473,
 2028-Apr-25 00:00, 2461886.500000000, , , 29.41552,  9.39587,  30.6623, -2.4622, 9.27319990009737,  3.9232831,  30.6622556, -2.4621744,
 2028-May-24 00:00, 2461915.500000000, , , 30.38715,  9.77071,  31.6918, -2.4410, 9.25669748932266,  4.1738423,  31.6917607, -2.4410274,
 2028-Jun-22 00:00, 2461944.500000000, , , 31.41537, 10.13463,  32.7689, -2.4450, 9.24516756953098, -1.0032041,  32.7688837, -2.4449836,
 2028-Jul-21 00:00, 2461973.500000000, , , 32.44073, 10.47996,  33.8360, -2.4608, 9.24272888010863, -5.3503802,  33.8360144, -2.4608440,
 2028-Aug-19 00:00, 2462002.500000000, , , 33.41404, 10.81719,  34.8512, -2.4627, 9.24339366413625, -4.1449180,  34.8512094, -2.4626673,
 2028-Sep-17 00:00, 2462031.500000000, , , 34.34792, 11.16434,  35.8321, -2.4380, 9.23747887895125,  1.7087652,  35.8320681, -2.4380350,
 2028-Oct-16 00:00, 2462060.500000000, , , 35.31071, 11.52610,  36.8433, -2.4046, 9.22277671545100,  4.9631041,  36.8433454, -2.4046437,
 2028-Nov-14 00:00, 2462089.500000000, , , 36.34111, 11.88480,  37.9150, -2.3908, 9.20848604022253,  1.5297290,  37.9150178, -2.3908383,
 2028-Dec-13 00:00, 2462118.500000000, , , 37.39804, 12.22343,  39.0036, -2.3990, 9.20282144420974, -3.9167164,  39.0036247, -2.3990473,
 2029-Jan-11 00:00, 2462147.500000000, , , 38.41848, 12.54509,  40.0518, -2.4067, 9.20374762054491, -5.3601354,  40.0518280, -2.4067417,
 2029-Feb-09 00:00, 2462176.500000000, , , 39.38473, 12.86848,  41.0491, -2.3913, 9.20207949147351, -0.9704008,  41.0491001, -2.3913111,
 2029-Mar-10 00:00, 2462205.500000000, , , 40.34772, 13.20853,  42.0471, -2.3542, 9.19113698484182,  4.3517510,  42.0471496, -2.3541949,
 2029-Apr-08 00:00, 2462234.500000000, , , 41.37220, 13.55573,  43.1030, -2.3232, 9.17584654232847,  3.6536824,  43.1029815, -2.3231931,
 2029-May-07 00:00, 2462263.500000000, , , 42.44954, 13.88671,  44.2015, -2.3171, 9.16667419622168, -1.7460231,  44.2015449, -2.3171334,
 2029-Jun-05 00:00, 2462292.500000000, , , 43.51503, 14.19411,  45.2808, -2.3241, 9.16616370501755, -5.3900851,  45.2808057, -2.3240998,
 2029-Jul-04 00:00, 2462321.500000000, , , 44.52517, 14.49267,  46.3048, -2.3182, 9.16731839087576, -3.3353055,  46.3048117, -2.3181933,
 2029-Aug-02 00:00, 2462350.500000000, , , 45.50287, 14.80389,  47.3009, -2.2858, 9.16110115474104,  2.5028901,  47.3008892, -2.2857598,
 2029-Aug-31 00:00, 2462379.500000000, , , 46.51961, 15.13081,  48.3360, -2.2432, 9.14703507817382,  4.8252867,  48.3360340, -2.2431539,
 2029-Sep-29 00:00, 2462408.500000000, , , 47.60487, 15.45061,  49.4312, -2.2192, 9.13494433134059,  0.7378052,  49.4311973, -2.2192086,
 2029-Oct-28 00:00, 2462437.500000000, , , 48.70804, 15.74458,  50.5345, -2.2180, 9.13176998036250, -4.3406441,  50.5344894, -2.2179504,
 2029-Nov-26 00:00, 2462466.500000000, , , 49.76737, 16.01923,  51.5905, -2.2176, 9.13398028261788, -4.8453545,  51.5905364, -2.2175662,
